[
    {
        "Altitude(m)": 703187.0470039399,
        "Argument of Periapsis(deg)": 0.0011390121186627068,
        "Eccentricity": 0.0,
        "Inclination(deg)": 45.0,
        "Latitude(deg)": 21.795826965030685,
        "Longitude(deg)": -28.486665348110876,
        "Mean Anomaly(deg)": -211.57397833525198,
        "RAAN(deg)": 274.99892480585413,
        "Satellite Name": "Constellation 1 1219",
        "Satellite Number": 1219,
        "Semi-Major Axis(m)": 7083131.272910544,
        "Time(s)": 19
    },
    {
        "Altitude(m)": 703183.1697800014,
        "Argument of Periapsis(deg)": 0.0011989601249081123,
        "Eccentricity": 0.0,
        "Inclination(deg)": 45.0,
        "Latitude(deg)": 21.756206391772913,
        "Longitude(deg)": -28.441103470926667,
        "Mean Anomaly(deg)": -211.51327719500205,
        "RAAN(deg)": 274.9988682166886,
        "Satellite Name": "Constellation 1 1219",
        "Satellite Number": 1219,
        "Semi-Major Axis(m)": 7083131.272910544,
        "Time(s)": 20
    },
    {
        "Altitude(m)": 703179.3050314917,
        "Argument of Periapsis(deg)": 0.001258908131153518,
        "Eccentricity": 0.0,
        "Inclination(deg)": 45.0,
        "Latitude(deg)": 21.71657074549564,
        "Longitude(deg)": -28.395568847797566,
        "Mean Anomaly(deg)": -211.45257605475214,
        "RAAN(deg)": 274.998811627523,
        "Satellite Name": "Constellation 1 1219",
        "Satellite Number": 1219,
        "Semi-Major Axis(m)": 7083131.272910544,
        "Time(s)": 21
    },
    {
        "Altitude(m)": 703175.4527921207,
        "Argument of Periapsis(deg)": 0.0013188561373989236,
        "Eccentricity": 0.0,
        "Inclination(deg)": 45.0,
        "Latitude(deg)": 21.676920064393187,
        "Longitude(deg)": -28.350061587513668,
        "Mean Anomaly(deg)": -211.39187491450227,
        "RAAN(deg)": 274.9987550383575,
        "Satellite Name": "Constellation 1 1219",
        "Satellite Number": 1219,
        "Semi-Major Axis(m)": 7083131.272910544,
        "Time(s)": 22
    },
    {
        "Altitude(m)": 703171.6130955513,
        "Argument of Periapsis(deg)": 0.0013788041436443293,
        "Eccentricity": 0.0,
        "Inclination(deg)": 45.0,
        "Latitude(deg)": 21.637254386606855,
        "Longitude(deg)": -28.3045812945976,
        "Mean Anomaly(deg)": -211.33117377425233,
        "RAAN(deg)": 274.9986984491919,
        "Satellite Name": "Constellation 1 1219",
        "Satellite Number": 1219,
        "Semi-Major Axis(m)": 7083131.272910544,
        "Time(s)": 23
    },
    {
        "Altitude(m)": 703167.7859754014,
        "Argument of Periapsis(deg)": 0.001438752149889735,
        "Eccentricity": 0.0,
        "Inclination(deg)": 45.0,
        "Latitude(deg)": 21.59757375022367,
        "Longitude(deg)": -28.259128077886466,
        "Mean Anomaly(deg)": -211.2704726340024,
        "RAAN(deg)": 274.9986418600263,
        "Satellite Name": "Constellation 1 1219",
        "Satellite Number": 1219,
        "Semi-Major Axis(m)": 7083131.272910544,
        "Time(s)": 24
    },
    {
        "Altitude(m)": 703163.97146524,
        "Argument of Periapsis(deg)": 0.0014987001561351404,
        "Eccentricity": 0.0,
        "Inclination(deg)": 45.0,
        "Latitude(deg)": 21.55787819327767,
        "Longitude(deg)": -28.21370187814425,
        "Mean Anomaly(deg)": -211.20977149375256,
        "RAAN(deg)": 274.99858527086076,
        "Satellite Name": "Constellation 1 1219",
        "Satellite Number": 1219,
        "Semi-Major Axis(m)": 7083131.272910544,
        "Time(s)": 25
    },
    {
        "Altitude(m)": 703160.1695985969,
        "Argument of Periapsis(deg)": 0.001558648162380546,
        "Eccentricity": 0.0,
        "Inclination(deg)": 45.0,
        "Latitude(deg)": 21.518167753749143,
        "Longitude(deg)": -28.168302636158515,
        "Mean Anomaly(deg)": -211.14907035350262,
        "RAAN(deg)": 274.9985286816952,
        "Satellite Name": "Constellation 1 1219",
        "Satellite Number": 1219,
        "Semi-Major Axis(m)": 7083131.272910544,
        "Time(s)": 26
    },
    {
        "Altitude(m)": 703156.3804089476,
        "Argument of Periapsis(deg)": 0.0016185961686259519,
        "Eccentricity": 0.0,
        "Inclination(deg)": 45.0,
        "Latitude(deg)": 21.47844246956568,
        "Longitude(deg)": -28.12293029274123,
        "Mean Anomaly(deg)": -211.08836921325275,
        "RAAN(deg)": 274.99847209252965,
        "Satellite Name": "Constellation 1 1219",
        "Satellite Number": 1219,
        "Semi-Major Axis(m)": 7083131.272910544,
        "Time(s)": 27
    },
    {
        "Altitude(m)": 703152.6039297236,
        "Argument of Periapsis(deg)": 0.0016785441748713573,
        "Eccentricity": 0.0,
        "Inclination(deg)": 45.0,
        "Latitude(deg)": 21.43870237860143,
        "Longitude(deg)": -28.07758478872807,
        "Mean Anomaly(deg)": -211.02766807300281,
        "RAAN(deg)": 274.9984155033641,
        "Satellite Name": "Constellation 1 1219",
        "Satellite Number": 1219,
        "Semi-Major Axis(m)": 7083131.272910544,
        "Time(s)": 28
    },
    {
        "Altitude(m)": 703148.8401943141,
        "Argument of Periapsis(deg)": 0.001738492181116763,
        "Eccentricity": 0.0,
        "Inclination(deg)": 45.0,
        "Latitude(deg)": 21.398947518677733,
        "Longitude(deg)": -28.032266064979353,
        "Mean Anomaly(deg)": -210.96696693275294,
        "RAAN(deg)": 274.9983589141985,
        "Satellite Name": "Constellation 1 1219",
        "Satellite Number": 1219,
        "Semi-Major Axis(m)": 7083131.272910544,
        "Time(s)": 29
    },
    {
        "Altitude(m)": 703145.0892360584,
        "Argument of Periapsis(deg)": 0.0017984401873621684,
        "Eccentricity": 0.0,
        "Inclination(deg)": 45.0,
        "Latitude(deg)": 21.35917792756273,
        "Longitude(deg)": -27.98697423047654,
        "Mean Anomaly(deg)": -210.90626579250304,
        "RAAN(deg)": 274.9983023250329,
        "Satellite Name": "Constellation 1 1219",
        "Satellite Number": 1219,
        "Semi-Major Axis(m)": 7083131.272910544,
        "Time(s)": 30
    },
    {
        "Altitude(m)": 703141.3510882418,
        "Argument of Periapsis(deg)": 0.0018583881936075745,
        "Eccentricity": 0.0,
        "Inclination(deg)": 45.0,
        "Latitude(deg)": 21.31939364297274,
        "Longitude(deg)": -27.94170888993471,
        "Mean Anomaly(deg)": -210.84556465225316,
        "RAAN(deg)": 274.99824573586733,
        "Satellite Name": "Constellation 1 1219",
        "Satellite Number": 1219,
        "Semi-Major Axis(m)": 7083131.272910544,
        "Time(s)": 31
    },
    {
        "Altitude(m)": 703137.6257841134,
        "Argument of Periapsis(deg)": 0.0019183361998529795,
        "Eccentricity": 0.0,
        "Inclination(deg)": 45.0,
        "Latitude(deg)": 21.279594702570552,
        "Longitude(deg)": -27.89647015238445,
        "Mean Anomaly(deg)": -210.78486351200326,
        "RAAN(deg)": 274.9981891467018,
        "Satellite Name": "Constellation 1 1219",
        "Satellite Number": 1219,
        "Semi-Major Axis(m)": 7083131.272910544,
        "Time(s)": 32
    },
    {
        "Altitude(m)": 703133.9133568659,
        "Argument of Periapsis(deg)": 0.0019782842060983856,
        "Eccentricity": 0.0,
        "Inclination(deg)": 45.0,
        "Latitude(deg)": 21.239781143966777,
        "Longitude(deg)": -27.851257958784363,
        "Mean Anomaly(deg)": -210.72416237175335,
        "RAAN(deg)": 274.9981325575362,
        "Satellite Name": "Constellation 1 1219",
        "Satellite Number": 1219,
        "Semi-Major Axis(m)": 7083131.272910544,
        "Time(s)": 33
    },
    {
        "Altitude(m)": 703130.213839651,
        "Argument of Periapsis(deg)": 0.0020382322123437906,
        "Eccentricity": 0.0,
        "Inclination(deg)": 45.0,
        "Latitude(deg)": 21.19995300471956,
        "Longitude(deg)": -27.806072250117662,
        "Mean Anomaly(deg)": -210.66346123150342,
        "RAAN(deg)": 274.99807596837064,
        "Satellite Name": "Constellation 1 1219",
        "Satellite Number": 1219,
        "Semi-Major Axis(m)": 7083131.272910544,
        "Time(s)": 34
    },
    {
        "Altitude(m)": 703126.5272655692,
        "Argument of Periapsis(deg)": 0.002098180218589197,
        "Eccentricity": 0.0,
        "Inclination(deg)": 45.0,
        "Latitude(deg)": 21.16011032233479,
        "Longitude(deg)": -27.760912967392827,
        "Mean Anomaly(deg)": -210.60276009125354,
        "RAAN(deg)": 274.99801937920506,
        "Satellite Name": "Constellation 1 1219",
        "Satellite Number": 1219,
        "Semi-Major Axis(m)": 7083131.272910544,
        "Time(s)": 35
    },
    {
        "Altitude(m)": 703122.8536676777,
        "Argument of Periapsis(deg)": 0.002158128224834602,
        "Eccentricity": 0.0,
        "Inclination(deg)": 45.0,
        "Latitude(deg)": 21.12025313426634,
        "Longitude(deg)": -27.715780051643332,
        "Mean Anomaly(deg)": -210.54205895100364,
        "RAAN(deg)": 274.9979627900395,
        "Satellite Name": "Constellation 1 1219",
        "Satellite Number": 1219,
        "Semi-Major Axis(m)": 7083131.272910544,
        "Time(s)": 36
    },
    {
        "Altitude(m)": 703119.193078975,
        "Argument of Periapsis(deg)": 0.002218076231080008,
        "Eccentricity": 0.0,
        "Inclination(deg)": 45.0,
        "Latitude(deg)": 21.08038147791554,
        "Longitude(deg)": -27.670673612024792,
        "Mean Anomaly(deg)": -210.48135781075376,
        "RAAN(deg)": 274.9979062008739,
        "Satellite Name": "Constellation 1 1219",
        "Satellite Number": 1219,
        "Semi-Major Axis(m)": 7083131.272910544,
        "Time(s)": 37
    }
]